STARLINK-31985          
1 60036U 24111W   26068.43895342  .00000073  00000+0  14579-4 0  9993
2 60036  53.1602  76.8895 0001208  78.2477 281.8660 15.30193872 98932
FLOCK 4G-13             
1 62621U 25009N   26068.70638971  .00053076  00000+0  16695-2 0  9995
2 62621  97.4019 151.0918 0003801 292.7207  67.3633 15.32770015 63700
